ONEWEB-0645             
1 55809U 23029P   25191.53490479  .00000033  00000+0  49163-4 0  9994
2 55809  87.9217  12.9109 0002135  97.0625 263.0751 13.19726294113840
ONEWEB-0646             
1 55810U 23029Q   25191.56491456  .00000002  00000+0 -28511-4 0  9996
2 55810  87.9199  12.8962 0002050  86.1240 274.0127 13.19724048114525
ONEWEB-0648             
1 55811U 23029R   25191.49575954 -.00000145  00000+0 -42657-3 0  9990
2 55811  87.9043 357.6958 0002828  96.4918 263.6534 13.14505097114508
ONEWEB-0649             
1 55812U 23029S   25191.52780340  .00000107  00000+0  23424-3 0  9999
2 55812  87.9216  12.8943 0002352  93.1793 266.9609 13.19725522113861
ONEWEB-0650             
1 55813U 23029T   25191.52306646  .00000089  00000+0  18913-3 0  9999
2 55813  87.9217  12.9049 0002053  88.8184 271.3184 13.19725874113839
ONEWEB-0652             
1 55814U 23029U   25191.47674120 -.00000075  00000+0 -23571-3 0  9992
2 55814  87.9046 357.7093 0001671  92.8639 267.2682 13.14503097114478
ONEWEB-0653             
1 55815U 23029V   25191.46087886  .00000205  00000+0  51828-3 0  9998
2 55815  87.9049 357.7025 0001736  99.9958 260.1367 13.14503252114500
ONEWEB-0654             
1 55816U 23029W   25191.53223637  .00000278  00000+0  71462-3 0  9999
2 55816  87.9044 357.6881 0001437  97.3963 262.7330 13.14503510114539
